[{"OBJECT_NAME":"GLOBAL-2","OBJECT_ID":"2018-099BG","EPOCH":"2026-03-09T16:47:21.463008","MEAN_MOTION":15.08046936,"ECCENTRICITY":0.00074537,"INCLINATION":97.3697,"RA_OF_ASC_NODE":109.328,"ARG_OF_PERICENTER":127.1924,"MEAN_ANOMALY":232.9986,"EPHEMERIS_TYPE":0,"CLASSIFICATION_TYPE":"U","NORAD_CAT_ID":43812,"ELEMENT_SET_NO":999,"REV_AT_EPOCH":39691,"BSTAR":0.0002614533,"MEAN_MOTION_DOT":3.97e-5,"MEAN_MOTION_DDOT":0},{"OBJECT_NAME":"UNKNOWN","OBJECT_ID":"","EPOCH":"2026-03-07T16:41:41.743392","MEAN_MOTION":15.0507428,"ECCENTRICITY":0.0006664,"INCLINATION":85.8737,"RA_OF_ASC_NODE":153.9139,"ARG_OF_PERICENTER":326.6675,"MEAN_ANOMALY":33.4139,"EPHEMERIS_TYPE":0,"CLASSIFICATION_TYPE":"U","NORAD_CAT_ID":82448,"ELEMENT_SET_NO":999,"REV_AT_EPOCH":44981,"BSTAR":0.00062595,"MEAN_MOTION_DOT":8.933e-5,"MEAN_MOTION_DDOT":0}]
